1 27424U 02022A   12049.19856962  .00000576  00000-0  13802-3 0  2164
2 27424 098.2221 351.4012 0001337 086.8944 273.2416 14.57103052520891